STARLINK-31728          
1 59496U 24071N   26068.08643689  .00028644  00000+0  10473-2 0  9993
2 59496  43.0043 343.1232 0001904 251.6182 108.4463 15.27551096108114
FLOCK 4G-36             
1 62675U 25009BU  26068.70726311  .00013573  00000+0  51122-3 0  9993
2 62675  97.4053 151.0513 0003474 324.2456  35.8550 15.27209548 63701
